O3B MPOWER F1           
1 54755U 22174A   23208.80360353 -.00000012  00000+0  00000+0 0  9997
2 54755   0.0395  10.4584 0003302 192.1419 306.0182  5.00111978 12568
